{"type": "FeatureCollection", "features": [ {"type": "Feature", "properties": {"norad_id": 66830, "name": "STARLINK-35881", "group": "last-30-days", "lat": -69.97473354347167, "lon": 69.98448739051777, "alt_km": 413.5669740377616, "timestamp": "2025-12-27T12:55:13.195659+00:00", "meta": {"OBJECT_NAME": "STARLINK-35881", "OBJECT_ID": "2025-280K", "EPOCH": "2025-12-27T04:01:35.480064", "MEAN_MOTION": 15.52548077, "ECCENTRICITY": 0.00031547, "INCLINATION": 70.0006, "RA_OF_ASC_NODE": 158.8761, "ARG_OF_PERICENTER": 283.0642, "MEAN_ANOMALY": 77.0192, "EPHEMERIS_TYPE": 0, "CLASSIFICATION_TYPE": "U", "NORAD_CAT_ID": 66830, "ELEMENT_SET_NO": 999, "REV_AT_EPOCH": 517, "BSTAR": 0.0019915234, "MEAN_MOTION_DOT": 0.00124416, "MEAN_MOTION_DDOT": 0}, "tle": {"line1": "1 66830U 25280K   25361.16777176  .00124416  00000+0  19915-2 0  9993", "line2": "2 66830  70.0006 158.8761 0003154 283.0642  77.0192 15.52548077  5175"}}, "geometry": {"type": "Point", "coordinates": [69.98448739051777, -69.97473354347167]}}, {"type": "Feature", "properties": {"norad_id": 66831, "name": "STARLINK-35788", "group": "last-30-days", "lat": -69.81333986525843, "lon": 75.70000435429229, "alt_km": 413.1881870400093, "timestamp": "2025-12-27T12:55:13.195673+00:00", "meta": {"OBJECT_NAME": "STARLINK-35788", "OBJECT_ID": "2025-280L", "EPOCH": "2025-12-27T04:01:05.450880", "MEAN_MOTION": 15.52566092, "ECCENTRICITY": 0.00035133, "INCLINATION": 70.0002, "RA_OF_ASC_NODE": 158.8757, "ARG_OF_PERICENTER": 275.5341, "MEAN_ANOMALY": 84.5445, "EPHEMERIS_TYPE": 0, "CLASSIFICATION_TYPE": "U", "NORAD_CAT_ID": 66831, "ELEMENT_SET_NO": 999, "REV_AT_EPOCH": 517, "BSTAR": 0.0022665873, "MEAN_MOTION_DOT": 0.00142037, "MEAN_MOTION_DDOT": 0}, "tle": {"line1": "1 66831U 25280L   25361.16742420  .00142037  00000+0  22666-2 0  9994", "line2": "2 66831  70.0002 158.8757 0003513 275.5341  84.5445 15.52566092  5179"}}, "geometry": {"type": "Point", "coordinates": [75.70000435429229, -69.81333986525843]}}, {"type": "Feature", "properties": {"norad_id": 66832, "name": "STARLINK-35768", "group": "last-30-days", "lat": -69.48650232338055, "lon": 81.08753493747689, "alt_km": 413.46121088010113, "timestamp": "2025-12-27T12:55:13.195683+00:00", "meta": {"OBJECT_NAME": "STARLINK-35768", "OBJECT_ID": "2025-280M", "EPOCH": "2025-12-27T04:00:35.956512", "MEAN_MOTION": 15.52564307, "ECCENTRICITY": 0.00031357, "INCLINATION": 70.0005, "RA_OF_ASC_NODE": 158.8732, "ARG_OF_PERICENTER": 276.8618, "MEAN_ANOMALY": 83.2212, "EPHEMERIS_TYPE": 0, "CLASSIFICATION_TYPE": "U", "NORAD_CAT_ID": 66832, "ELEMENT_SET_NO": 999, "REV_AT_EPOCH": 517, "BSTAR": 0.0021558069, "MEAN_MOTION_DOT": 0.00134951, "MEAN_MOTION_DDOT": 0}, "tle": {"line1": "1 66832U 25280M   25361.16708283  .00134951  00000+0  21558-2 0  9999", "line2": "2 66832  70.0005 158.8732 0003135 276.8618  83.2212 15.52564307  5172"}}, "geometry": {"type": "Point", "coordinates": [81.08753493747689, -69.48650232338055]}}, {"type": "Feature", "properties": {"norad_id": 66833, "name": "STARLINK-35858", "group": "last-30-days", "lat": -69.00650857306776, "lon": 86.20431334964056, "alt_km": 413.40090853063157, "timestamp": "2025-12-27T12:55:13.195693+00:00", "meta": {"OBJECT_NAME": "STARLINK-35858", "OBJECT_ID": "2025-280N", "EPOCH": "2025-12-27T04:00:06.196896", "MEAN_MOTION": 15.52549099, "ECCENTRICITY": 0.00034531, "INCLINATION": 70.0005, "RA_OF_ASC_NODE": 158.8719, "ARG_OF_PERICENTER": 273.3916, "MEAN_ANOMALY": 86.6876, "EPHEMERIS_TYPE": 0, "CLASSIFICATION_TYPE": "U", "NORAD_CAT_ID": 66833, "ELEMENT_SET_NO": 999, "REV_AT_EPOCH": 517, "BSTAR": 0.0013678637, "MEAN_MOTION_DOT": 0.00084983, "MEAN_MOTION_DDOT": 0}, "tle": {"line1": "1 66833U 25280N   25361.16673839  .00084983  00000+0  13679-2 0  9992", "line2": "2 66833  70.0005 158.8719 0003453 273.3916  86.6876 15.52549099  5178"}}, "geometry": {"type": "Point", "coordinates": [86.20431334964056, -69.00650857306776]}}, {"type": "Feature", "properties": {"norad_id": 66834, "name": "STARLINK-35840", "group": "last-30-days", "lat": -68.33760533163871, "lon": 91.36068113113792, "alt_km": 413.3035228788276, "timestamp": "2025-12-27T12:55:13.195703+00:00", "meta": {"OBJECT_NAME": "STARLINK-35840", "OBJECT_ID": "2025-280P", "EPOCH": "2025-12-27T03:59:36.414816", "MEAN_MOTION": 15.52574374, "ECCENTRICITY": 0.00034254, "INCLINATION": 70.0005, "RA_OF_ASC_NODE": 158.8705, "ARG_OF_PERICENTER": 262.9109, "MEAN_ANOMALY": 97.1688, "EPHEMERIS_TYPE": 0, "CLASSIFICATION_TYPE": "U", "NORAD_CAT_ID": 66834, "ELEMENT_SET_NO": 999, "REV_AT_EPOCH": 517, "BSTAR": 0.0022424889, "MEAN_MOTION_DOT": 0.00140538, "MEAN_MOTION_DDOT": 0}, "tle": {"line1": "1 66834U 25280P   25361.16639369  .00140538  00000+0  22425-2 0  9991", "line2": "2 66834  70.0005 158.8705 0003425 262.9109  97.1688 15.52574374  5173"}}, "geometry": {"type": "Point", "coordinates": [91.36068113113792, -68.33760533163871]}}, {"type": "Feature", "properties": {"norad_id": 66835, "name": "STARLINK-35890", "group": "last-30-days", "lat": -67.53107568353363, "lon": 96.12840589749436, "alt_km": 413.2813158332483, "timestamp": "2025-12-27T12:55:13.195713+00:00", "meta": {"OBJECT_NAME": "STARLINK-35890", "OBJECT_ID": "2025-280Q", "EPOCH": "2025-12-26T21:47:59.836416", "MEAN_MOTION": 15.52558431, "ECCENTRICITY": 0.0003353, "INCLINATION": 70.0006, "RA_OF_ASC_NODE": 159.5749, "ARG_OF_PERICENTER": 274.5404, "MEAN_ANOMALY": 85.54, "EPHEMERIS_TYPE": 0, "CLASSIFICATION_TYPE": "U", "NORAD_CAT_ID": 66835, "ELEMENT_SET_NO": 999, "REV_AT_EPOCH": 513, "BSTAR": 0.0014851, "MEAN_MOTION_DOT": 0.000924, "MEAN_MOTION_DDOT": 0}, "tle": {"line1": "1 66835U 25280Q   25360.90833144  .00092400  00000+0  14851-2 0  9998", "line2": "2 66835  70.0006 159.5749 0003353 274.5404  85.5400 15.52558431  5133"}}, "geometry": {"type": "Point", "coordinates": [96.12840589749436, -67.53107568353363]}}, {"type": "Feature", "properties": {"norad_id": 66836, "name": "STARLINK-35838", "group": "last-30-days", "lat": -66.66468055549764, "lon": 100.25297745566633, "alt_km": 413.4554067682684, "timestamp": "2025-12-27T12:55:13.195744+00:00", "meta": {"OBJECT_NAME": "STARLINK-35838", "OBJECT_ID": "2025-280R", "EPOCH": "2025-12-27T03:58:37.486560", "MEAN_MOTION": 15.52567542, "ECCENTRICITY": 0.00030705, "INCLINATION": 70.0007, "RA_OF_ASC_NODE": 158.8672, "ARG_OF_PERICENTER": 280.3634, "MEAN_ANOMALY": 79.7207, "EPHEMERIS_TYPE": 0, "CLASSIFICATION_TYPE": "U", "NORAD_CAT_ID": 66836, "ELEMENT_SET_NO": 999, "REV_AT_EPOCH": 517, "BSTAR": 0.0022522616, "MEAN_MOTION_DOT": 0.00141123, "MEAN_MOTION_DDOT": 0}, "tle": {"line1": "1 66836U 25280R   25361.16571165  .00141123  00000+0  22523-2 0  9992", "line2": "2 66836  70.0007 158.8672 0003070 280.3634  79.7207 15.52567542  5175"}}, "geometry": {"type": "Point", "coordinates": [100.25297745566633, -66.66468055549764]}}, {"type": "Feature", "properties": {"norad_id": 66837, "name": "STARLINK-35729", "group": "last-30-days", "lat": -65.68198669343631, "lon": 104.14044291138944, "alt_km": 413.5327061962007, "timestamp": "2025-12-27T12:55:13.195756+00:00", "meta": {"OBJECT_NAME": "STARLINK-35729", "OBJECT_ID": "2025-280S", "EPOCH": "2025-12-27T05:30:54.347616", "MEAN_MOTION": 15.52543215, "ECCENTRICITY": 0.0003397, "INCLINATION": 70.0008, "RA_OF_ASC_NODE": 158.6895, "ARG_OF_PERICENTER": 271.4724, "MEAN_ANOMALY": 88.6073, "EPHEMERIS_TYPE": 0, "CLASSIFICATION_TYPE": "U", "NORAD_CAT_ID": 66837, "ELEMENT_SET_NO": 999, "REV_AT_EPOCH": 518, "BSTAR": 0.0011759899, "MEAN_MOTION_DOT": 0.00072911, "MEAN_MOTION_DDOT": 0}, "tle": {"line1": "1 66837U 25280S   25361.22979569  .00072911  00000+0  11760-2 0  9999", "line2": "2 66837  70.0008 158.6895 0003397 271.4724  88.6073 15.52543215  5187"}}, "geometry": {"type": "Point", "coordinates": [104.14044291138944, -65.68198669343631]}}, {"type": "Feature", "properties": {"norad_id": 66838, "name": "STARLINK-35886", "group": "last-30-days", "lat": -59.27487672272708, "lon": 120.04152522986097, "alt_km": 402.8147135696927, "timestamp": "2025-12-27T12:55:13.195766+00:00", "meta": {"OBJECT_NAME": "STARLINK-35886", "OBJECT_ID": "2025-280T", "EPOCH": "2025-12-27T02:23:52.356192", "MEAN_MOTION": 15.54588624, "ECCENTRICITY": 0.0005725, "INCLINATION": 70.0008, "RA_OF_ASC_NODE": 159.0386, "ARG_OF_PERICENTER": 299.9232, "MEAN_ANOMALY": 60.1387, "EPHEMERIS_TYPE": 0, "CLASSIFICATION_TYPE": "U", "NORAD_CAT_ID": 66838, "ELEMENT_SET_NO": 999, "REV_AT_EPOCH": 516, "BSTAR": 0.017817527, "MEAN_MOTION_DOT": 0.01307598, "MEAN_MOTION_DDOT": 0}, "tle": {"line1": "1 66838U 25280T   25361.09991153  .01307598  00000+0  17818-1 0  9990", "line2": "2 66838  70.0008 159.0386 0005725 299.9232  60.1387 15.54588624  5160"}}, "geometry": {"type": "Point", "coordinates": [120.04152522986097, -59.27487672272708]}}, {"type": "Feature", "properties": {"norad_id": 66839, "name": "STARLINK-35717", "group": "last-30-days", "lat": -64.41426240239852, "lon": 108.31985982519079, "alt_km": 413.00481645581567, "timestamp": "2025-12-27T12:55:13.195777+00:00", "meta": {"OBJECT_NAME": "STARLINK-35717", "OBJECT_ID": "2025-280U", "EPOCH": "2025-12-26T21:46:30.789120", "MEAN_MOTION": 15.52580898, "ECCENTRICITY": 0.000346, "INCLINATION": 70.0008, "RA_OF_ASC_NODE": 159.5705, "ARG_OF_PERICENTER": 276.0283, "MEAN_ANOMALY": 84.0509, "EPHEMERIS_TYPE": 0, "CLASSIFICATION_TYPE": "U", "NORAD_CAT_ID": 66839, "ELEMENT_SET_NO": 999, "REV_AT_EPOCH": 513, "BSTAR": 0.0020441, "MEAN_MOTION_DOT": 0.00127914, "MEAN_MOTION_DDOT": 0}, "tle": {"line1": "1 66839U 25280U   25360.90730080  .00127914  00000+0  20441-2 0  9998", "line2": "2 66839  70.0008 159.5705 0003460 276.0283  84.0509 15.52580898  5138"}}, "geometry": {"type": "Point", "coordinates": [108.31985982519079, -64.41426240239852]}}]}